YOTSUBA-KULOVER         
1 65941U 98067XN  26061.11012523  .00181064  00000+0  10610-2 0  9994
2 65941  51.6216  96.5095 0006138  23.3652 336.7626 15.77213173 22308
BOTAN                   
1 65942U 98067XP  26060.32892749  .01991374  37933-2  17297-2 0  9993
2 65942  51.6093  93.3995 0006842  39.1940 320.9569 16.13419316 22278
E-KAGAKU-1              
1 65943U 98067XQ  26061.11316687  .00175580  00000+0  10407-2 0  9994
2 65943  51.6235  96.5451 0006354  31.1662 328.9714 15.76971144 22304
HRC MONOBLOCK CAMERA    
1 66052U 98067XR  26061.14968021  .00051388  00000+0  59571-3 0  9999
2 66052  51.6272 103.5616 0003358  58.7722 301.3600 15.61278385 21211
HTV-X1                  
1 66174U 25241A   26060.83336604  .00009867  00000+0  19089-3 0  9994
2 66174  51.6319 111.1961 0008284 147.0223 213.1284 15.48387794554834
SZ-21 MODULE            
1 66515U 25246C   26060.60353166  .00039570  00000+0  35055-3 0  9990
2 66515  41.4736 253.1136 0001467 286.2005  73.8675 15.67828728 16807
SHENZHOU-22             
1 66645U 25272A   26060.97155006  .00018403  00000+0  22216-3 0  9993
2 66645  41.4650 255.1104 0006485 224.8332 135.1983 15.60287499267909
SOYUZ-MS 28             
1 66664U 25275A   26060.83336604  .00009867  00000+0  19089-3 0  9995
2 66664  51.6319 111.1961 0008284 147.0223 213.1284 15.48387794554883
DUPLEX                  
1 66906U 98067XS  26061.13575022  .00033421  00000+0  48224-3 0  9992
2 66906  51.6287 107.2196 0001950  87.2726 272.8488 15.55658577 13952
ISS OBJECT XT           
1 66907U 98067XT  26061.12577436  .00137922  00000+0  12671-2 0  9990
2 66907  51.6253 104.1433 0004495  32.7223 327.4051 15.66739578 13990
ISS OBJECT XU           
1 66908U 98067XU  26061.12446178  .00141366  00000+0  12932-2 0  9996
2 66908  51.6250 104.1320 0004638  35.2881 324.8421 15.66832625 13999
SILVERSAT               
1 66909U 98067XV  26061.13812079  .00168941  00000+0  14005-2 0  9996
2 66909  51.6253 103.4732 0005405  32.1235 328.0090 15.69143718 14006
