CCSDS_OMM_VERS = 2.0
CREATION_DATE  = 
ORIGINATOR     = 

OBJECT_NAME    = YOTSUBA-KULOVER
OBJECT_ID      = 1998-067XN
CENTER_NAME    = EARTH
REF_FRAME      = TEME
TIME_SYSTEM    = UTC
MEAN_ELEMENT_THEORY = SGP/SGP4

EPOCH          = 2026-03-02T02:38:34.819872
MEAN_MOTION    = 15.77213173
ECCENTRICITY   = .0006138
INCLINATION    = 51.6216
RA_OF_ASC_NODE = 96.5095
ARG_OF_PERICENTER = 23.3652
MEAN_ANOMALY   = 336.7626

EPHEMERIS_TYPE = 0
CLASSIFICATION_TYPE = U
NORAD_CAT_ID   = 65941
ELEMENT_SET_NO = 999
REV_AT_EPOCH   = 2230
BSTAR          = .1061E-2
MEAN_MOTION_DOT = .181064E-2
MEAN_MOTION_DDOT = 0

CCSDS_OMM_VERS = 2.0
CREATION_DATE  = 
ORIGINATOR     = 

OBJECT_NAME    = BOTAN
OBJECT_ID      = 1998-067XP
CENTER_NAME    = EARTH
REF_FRAME      = TEME
TIME_SYSTEM    = UTC
MEAN_ELEMENT_THEORY = SGP/SGP4

EPOCH          = 2026-03-01T07:53:39.335136
MEAN_MOTION    = 16.13419316
ECCENTRICITY   = .0006842
INCLINATION    = 51.6093
RA_OF_ASC_NODE = 93.3995
ARG_OF_PERICENTER = 39.1940
MEAN_ANOMALY   = 320.9569

EPHEMERIS_TYPE = 0
CLASSIFICATION_TYPE = U
NORAD_CAT_ID   = 65942
ELEMENT_SET_NO = 999
REV_AT_EPOCH   = 2227
BSTAR          = .17297005E-2
MEAN_MOTION_DOT = .1991374E-1
MEAN_MOTION_DDOT = .37933128E-2

CCSDS_OMM_VERS = 2.0
CREATION_DATE  = 
ORIGINATOR     = 

OBJECT_NAME    = E-KAGAKU-1
OBJECT_ID      = 1998-067XQ
CENTER_NAME    = EARTH
REF_FRAME      = TEME
TIME_SYSTEM    = UTC
MEAN_ELEMENT_THEORY = SGP/SGP4

EPOCH          = 2026-03-02T02:42:57.617568
MEAN_MOTION    = 15.76971144
ECCENTRICITY   = .0006354
INCLINATION    = 51.6235
RA_OF_ASC_NODE = 96.5451
ARG_OF_PERICENTER = 31.1662
MEAN_ANOMALY   = 328.9714

EPHEMERIS_TYPE = 0
CLASSIFICATION_TYPE = U
NORAD_CAT_ID   = 65943
ELEMENT_SET_NO = 999
REV_AT_EPOCH   = 2230
BSTAR          = .10407E-2
MEAN_MOTION_DOT = .17558E-2
MEAN_MOTION_DDOT = 0

CCSDS_OMM_VERS = 2.0
CREATION_DATE  = 
ORIGINATOR     = 

OBJECT_NAME    = HRC MONOBLOCK CAMERA
OBJECT_ID      = 1998-067XR
CENTER_NAME    = EARTH
REF_FRAME      = TEME
TIME_SYSTEM    = UTC
MEAN_ELEMENT_THEORY = SGP/SGP4

EPOCH          = 2026-03-02T03:35:32.370144
MEAN_MOTION    = 15.61278385
ECCENTRICITY   = .0003358
INCLINATION    = 51.6272
RA_OF_ASC_NODE = 103.5616
ARG_OF_PERICENTER = 58.7722
MEAN_ANOMALY   = 301.3600

EPHEMERIS_TYPE = 0
CLASSIFICATION_TYPE = U
NORAD_CAT_ID   = 66052
ELEMENT_SET_NO = 999
REV_AT_EPOCH   = 2121
BSTAR          = .59571E-3
MEAN_MOTION_DOT = .51388E-3
MEAN_MOTION_DDOT = 0

CCSDS_OMM_VERS = 2.0
CREATION_DATE  = 
ORIGINATOR     = 

OBJECT_NAME    = HTV-X1
OBJECT_ID      = 2025-241A
CENTER_NAME    = EARTH
REF_FRAME      = TEME
TIME_SYSTEM    = UTC
MEAN_ELEMENT_THEORY = SGP/SGP4

EPOCH          = 2026-03-01T20:00:02.825856
MEAN_MOTION    = 15.48387794
ECCENTRICITY   = .0008284
INCLINATION    = 51.6319
RA_OF_ASC_NODE = 111.1961
ARG_OF_PERICENTER = 147.0223
MEAN_ANOMALY   = 213.1284

EPHEMERIS_TYPE = 0
CLASSIFICATION_TYPE = U
NORAD_CAT_ID   = 66174
ELEMENT_SET_NO = 999
REV_AT_EPOCH   = 55483
BSTAR          = .19089E-3
MEAN_MOTION_DOT = .9867E-4
MEAN_MOTION_DDOT = 0

CCSDS_OMM_VERS = 2.0
CREATION_DATE  = 
ORIGINATOR     = 

OBJECT_NAME    = SZ-21 MODULE
OBJECT_ID      = 2025-246C
CENTER_NAME    = EARTH
REF_FRAME      = TEME
TIME_SYSTEM    = UTC
MEAN_ELEMENT_THEORY = SGP/SGP4

EPOCH          = 2026-03-01T14:29:05.135424
MEAN_MOTION    = 15.67828728
ECCENTRICITY   = .00014678
INCLINATION    = 41.4736
RA_OF_ASC_NODE = 253.1136
ARG_OF_PERICENTER = 286.2005
MEAN_ANOMALY   = 73.8675

EPHEMERIS_TYPE = 0
CLASSIFICATION_TYPE = U
NORAD_CAT_ID   = 66515
ELEMENT_SET_NO = 999
REV_AT_EPOCH   = 1680
BSTAR          = .35054797E-3
MEAN_MOTION_DOT = .3957E-3
MEAN_MOTION_DDOT = 0

CCSDS_OMM_VERS = 2.0
CREATION_DATE  = 
ORIGINATOR     = 

OBJECT_NAME    = SHENZHOU-22
OBJECT_ID      = 2025-272A
CENTER_NAME    = EARTH
REF_FRAME      = TEME
TIME_SYSTEM    = UTC
MEAN_ELEMENT_THEORY = SGP/SGP4

EPOCH          = 2026-03-01T23:19:01.925184
MEAN_MOTION    = 15.60287499
ECCENTRICITY   = .0006485
INCLINATION    = 41.4650
RA_OF_ASC_NODE = 255.1104
ARG_OF_PERICENTER = 224.8332
MEAN_ANOMALY   = 135.1983

EPHEMERIS_TYPE = 0
CLASSIFICATION_TYPE = U
NORAD_CAT_ID   = 66645
ELEMENT_SET_NO = 999
REV_AT_EPOCH   = 26790
BSTAR          = .22216E-3
MEAN_MOTION_DOT = .18403E-3
MEAN_MOTION_DDOT = 0

CCSDS_OMM_VERS = 2.0
CREATION_DATE  = 
ORIGINATOR     = 

OBJECT_NAME    = SOYUZ-MS 28
OBJECT_ID      = 2025-275A
CENTER_NAME    = EARTH
REF_FRAME      = TEME
TIME_SYSTEM    = UTC
MEAN_ELEMENT_THEORY = SGP/SGP4

EPOCH          = 2026-03-01T20:00:02.825856
MEAN_MOTION    = 15.48387794
ECCENTRICITY   = .0008284
INCLINATION    = 51.6319
RA_OF_ASC_NODE = 111.1961
ARG_OF_PERICENTER = 147.0223
MEAN_ANOMALY   = 213.1284

EPHEMERIS_TYPE = 0
CLASSIFICATION_TYPE = U
NORAD_CAT_ID   = 66664
ELEMENT_SET_NO = 999
REV_AT_EPOCH   = 55488
BSTAR          = .19089E-3
MEAN_MOTION_DOT = .9867E-4
MEAN_MOTION_DDOT = 0

CCSDS_OMM_VERS = 2.0
CREATION_DATE  = 
ORIGINATOR     = 

OBJECT_NAME    = DUPLEX
OBJECT_ID      = 1998-067XS
CENTER_NAME    = EARTH
REF_FRAME      = TEME
TIME_SYSTEM    = UTC
MEAN_ELEMENT_THEORY = SGP/SGP4

EPOCH          = 2026-03-02T03:15:28.819008
MEAN_MOTION    = 15.55658577
ECCENTRICITY   = .000195
INCLINATION    = 51.6287
RA_OF_ASC_NODE = 107.2196
ARG_OF_PERICENTER = 87.2726
MEAN_ANOMALY   = 272.8488

EPHEMERIS_TYPE = 0
CLASSIFICATION_TYPE = U
NORAD_CAT_ID   = 66906
ELEMENT_SET_NO = 999
REV_AT_EPOCH   = 1395
BSTAR          = .48224E-3
MEAN_MOTION_DOT = .33421E-3
MEAN_MOTION_DDOT = 0

CCSDS_OMM_VERS = 2.0
CREATION_DATE  = 
ORIGINATOR     = 

OBJECT_NAME    = ISS OBJECT XT
OBJECT_ID      = 1998-067XT
CENTER_NAME    = EARTH
REF_FRAME      = TEME
TIME_SYSTEM    = UTC
MEAN_ELEMENT_THEORY = SGP/SGP4

EPOCH          = 2026-03-02T03:01:06.904704
MEAN_MOTION    = 15.66739578
ECCENTRICITY   = .0004495
INCLINATION    = 51.6253
RA_OF_ASC_NODE = 104.1433
ARG_OF_PERICENTER = 32.7223
MEAN_ANOMALY   = 327.4051

EPHEMERIS_TYPE = 0
CLASSIFICATION_TYPE = U
NORAD_CAT_ID   = 66907
ELEMENT_SET_NO = 999
REV_AT_EPOCH   = 1399
BSTAR          = .12671E-2
MEAN_MOTION_DOT = .137922E-2
MEAN_MOTION_DDOT = 0

CCSDS_OMM_VERS = 2.0
CREATION_DATE  = 
ORIGINATOR     = 

OBJECT_NAME    = ISS OBJECT XU
OBJECT_ID      = 1998-067XU
CENTER_NAME    = EARTH
REF_FRAME      = TEME
TIME_SYSTEM    = UTC
MEAN_ELEMENT_THEORY = SGP/SGP4

EPOCH          = 2026-03-02T02:59:13.497792
MEAN_MOTION    = 15.66832625
ECCENTRICITY   = .0004638
INCLINATION    = 51.6250
RA_OF_ASC_NODE = 104.1320
ARG_OF_PERICENTER = 35.2881
MEAN_ANOMALY   = 324.8421

EPHEMERIS_TYPE = 0
CLASSIFICATION_TYPE = U
NORAD_CAT_ID   = 66908
ELEMENT_SET_NO = 999
REV_AT_EPOCH   = 1399
BSTAR          = .12932E-2
MEAN_MOTION_DOT = .141366E-2
MEAN_MOTION_DDOT = 0

CCSDS_OMM_VERS = 2.0
CREATION_DATE  = 
ORIGINATOR     = 

OBJECT_NAME    = SILVERSAT
OBJECT_ID      = 1998-067XV
CENTER_NAME    = EARTH
REF_FRAME      = TEME
TIME_SYSTEM    = UTC
MEAN_ELEMENT_THEORY = SGP/SGP4

EPOCH          = 2026-03-02T03:18:53.636256
MEAN_MOTION    = 15.69143718
ECCENTRICITY   = .0005405
INCLINATION    = 51.6253
RA_OF_ASC_NODE = 103.4732
ARG_OF_PERICENTER = 32.1235
MEAN_ANOMALY   = 328.0090

EPHEMERIS_TYPE = 0
CLASSIFICATION_TYPE = U
NORAD_CAT_ID   = 66909
ELEMENT_SET_NO = 999
REV_AT_EPOCH   = 1400
BSTAR          = .14005E-2
MEAN_MOTION_DOT = .168941E-2
MEAN_MOTION_DDOT = 0

